CTC1_L_00033016-03
1 10062U 26603RY  26075.70030093  .00000000  00000+0  00000-0 0  9997
2 10062  70.0000 180.0000 0000000   0.0000   0.0000 15.69614517    13
CTC1_L_00033016-04
1 10063U 24459HE  26075.70030093  .00000000  00000+0  00000-0 0  9995
2 10063  70.0000 180.0000 0000000   0.0000  90.0000 15.69614517    13
CTC1_L_00033017-01
1 10064U 26314OD  26075.70030093  .00000000  00000+0  00000-0 0  9998
2 10064  70.0000 192.0000 0000000   0.0000 192.0000 15.69614517    10
CTC1_L_00033017-02
1 10065U 24405QR  26075.70030093  .00000000  00000+0  00000-0 0  9998
2 10065  70.0000 192.0000 0000000   0.0000 282.0000 15.69614517    11
CTC1_L_00033017-03
1 10066U 24447TB  26075.70030093  .00000000  00000+0  00000-0 0  9995
2 10066  70.0000 192.0000 0000000   0.0000  12.0000 15.69614517    13
CTC1_L_00033017-04
1 10067U 26853TQ  26075.70030093  .00000000  00000+0  00000-0 0  9999
2 10067  70.0000 192.0000 0000000   0.0000 102.0000 15.69614517    14
CTC1_L_00033018-01
1 10068U 22399GO  26075.70030093  .00000000  00000+0  00000-0 0  9991
2 10068  70.0000 204.0000 0000000   0.0000 204.0000 15.69614517    12
CTC1_L_00033018-02
1 10069U 24828H   26075.70030093  .00000000  00000+0  00000-0 0  9991
2 10069  70.0000 204.0000 0000000   0.0000 294.0000 15.69614517    12
CTC1_L_00033018-03
1 10070U 26738YC  26075.70030093  .00000000  00000+0  00000-0 0  9995
2 10070  70.0000 204.0000 0000000   0.0000  24.0000 15.69614517    15
CTC1_L_00033018-04
1 10071U 23002CH  26075.70030093  .00000000  00000+0  00000-0 0  9997
2 10071  70.0000 204.0000 0000000   0.0000 114.0000 15.69614517    16
CTC1_L_00033019-01
1 10072U 23447CV  26075.70030093  .00000000  00000+0  00000-0 0  9991
2 10072  70.0000 216.0000 0000000   0.0000 216.0000 15.69614517    13
CTC1_L_00033019-02
1 10073U 22444NZ  26075.70030093  .00000000  00000+0  00000-0 0  9998
2 10073  70.0000 216.0000 0000000   0.0000 306.0000 15.69614517    14
CTC1_L_00033019-03
1 10074U 26074HK  26075.70030093  .00000000  00000+0  00000-0 0  9992
2 10074  70.0000 216.0000 0000000   0.0000  36.0000 15.69614517    15
CTC1_L_00033019-04
1 10075U 25860DR  26075.70030093  .00000000  00000+0  00000-0 0  9995
2 10075  70.0000 216.0000 0000000   0.0000 126.0000 15.69614517    16
CTC1_L_00033020-01
1 10076U 26735OI  26075.70030093  .00000000  00000+0  00000-0 0  9998
2 10076  70.0000 228.0000 0000000   0.0000 228.0000 15.69614517    13
CTC1_L_00033020-02
1 10077U 26752QP  26075.70030093  .00000000  00000+0  00000-0 0  9998
2 10077  70.0000 228.0000 0000000   0.0000 318.0000 15.69614517    14
CTC1_L_00033020-03
1 10078U 26014TJ  26075.70030093  .00000000  00000+0  00000-0 0  9990
2 10078  70.0000 228.0000 0000000   0.0000  48.0000 15.69614517    15
CTC1_L_00033020-04
1 10079U 24408AS  26075.70030093  .00000000  00000+0  00000-0 0  9996
2 10079  70.0000 228.0000 0000000   0.0000 138.0000 15.69614517    16
CTC1_L_00033021-01
1 10080U 23335MP  26075.70030093  .00000000  00000+0  00000-0 0  9996
2 10080  70.0000 240.0000 0000000   0.0000 240.0000 15.69614517    16
CTC1_L_00033021-02
1 10081U 24697QD  26075.70030093  .00000000  00000+0  00000-0 0  9999
2 10081  70.0000 240.0000 0000000   0.0000 330.0000 15.69614517    17
CTC1_L_00033021-03
1 10082U 23842PE  26075.70030093  .00000000  00000+0  00000-0 0  9991
2 10082  70.0000 240.0000 0000000   0.0000  60.0000 15.69614517    18
CTC1_L_00033021-04
1 10083U 22220AU  26075.70030093  .00000000  00000+0  00000-0 0  9991
2 10083  70.0000 240.0000 0000000   0.0000 150.0000 15.69614517    19
CTC1_L_00033022-01
1 10084U 22218RB  26075.70030093  .00000000  00000+0  00000-0 0  9999
2 10084  70.0000 252.0000 0000000   0.0000 252.0000 15.69614517    16
CTC1_L_00033022-02
1 10085U 25912FP  26075.70030093  .00000000  00000+0  00000-0 0  9994
2 10085  70.0000 252.0000 0000000   0.0000 342.0000 15.69614517    17
CTC1_L_00033022-03
1 10086U 23243RT  26075.70030093  .00000000  00000+0  00000-0 0  9990
2 10086  70.0000 252.0000 0000000   0.0000  72.0000 15.69614517    18
CTC1_L_00033022-04
1 10087U 22420AQ  26075.70030093  .00000000  00000+0  00000-0 0  9997
2 10087  70.0000 252.0000 0000000   0.0000 162.0000 15.69614517    19
CTC1_L_00033023-01
1 10088U 23867VU  26075.70030093  .00000000  00000+0  00000-0 0  9994
2 10088  70.0000 264.0000 0000000   0.0000 264.0000 15.69614517    16
CTC1_L_00033023-02
1 10089U 22630GG  26075.70030093  .00000000  00000+0  00000-0 0  9992
2 10089  70.0000 264.0000 0000000   0.0000 354.0000 15.69614517    17
CTC1_L_00033023-03
1 10090U 22729YV  26075.70030093  .00000000  00000+0  00000-0 0  9993
2 10090  70.0000 264.0000 0000000   0.0000  84.0000 15.69614517    19
CTC1_L_00033023-04
1 10091U 24369Q   26075.70030093  .00000000  00000+0  00000-0 0  9996
2 10091  70.0000 264.0000 0000000   0.0000 174.0000 15.69614517    10
CTC1_L_00033024-01
1 10092U 23371SP  26075.70030093  .00000000  00000+0  00000-0 0  9999
2 10092  70.0000 276.0000 0000000   0.0000 276.0000 15.69614517    17
CTC1_L_00033024-02
1 10093U 22365WG  26075.70030093  .00000000  00000+0  00000-0 0  9992
2 10093  70.0000 276.0000 0000000   0.0000   6.0000 15.69614517    19
CTC1_L_00033024-03
1 10094U 25818QC  26075.70030093  .00000000  00000+0  00000-0 0  9999
2 10094  70.0000 276.0000 0000000   0.0000  96.0000 15.69614517    19
CTC1_L_00033024-04
1 10095U 25962OO  26075.70030093  .00000000  00000+0  00000-0 0  9990
2 10095  70.0000 276.0000 0000000   0.0000 186.0000 15.69614517    10
CTC1_L_00033025-01
1 10096U 24790ML  26075.70030093  .00000000  00000+0  00000-0 0  9999
2 10096  70.0000 288.0000 0000000   0.0000 288.0000 15.69614517    17
CTC1_L_00033025-02
1 10097U 23921WW  26075.70030093  .00000000  00000+0  00000-0 0  9995
2 10097  70.0000 288.0000 0000000   0.0000  18.0000 15.69614517    19
CTC1_L_00033025-03
1 10098U 23351DX  26075.70030093  .00000000  00000+0  00000-0 0  9993
2 10098  70.0000 288.0000 0000000   0.0000 108.0000 15.69614517    10
CTC1_L_00033025-04
1 10099U 25080BT  26075.70030093  .00000000  00000+0  00000-0 0  9995
2 10099  70.0000 288.0000 0000000   0.0000 198.0000 15.69614517    10
CTC1_L_00033026-01
1 10100U 22560JK  26075.70030093  .00000000  00000+0  00000-0 0  9998
2 10100  70.0000 300.0000 0000000   0.0000 300.0000 15.69614517    13
CTC1_L_00033026-02
1 10101U 24686CT  26075.70030093  .00000000  00000+0  00000-0 0  9990
2 10101  70.0000 300.0000 0000000   0.0000  30.0000 15.69614517    14
CTC1_L_00033026-03
1 10102U 23195SY  26075.70030093  .00000000  00000+0  00000-0 0  9995
2 10102  70.0000 300.0000 0000000   0.0000 120.0000 15.69614517    15
CTC1_L_00033026-04
1 10103U 24642RN  26075.70030093  .00000000  00000+0  00000-0 0  9994
2 10103  70.0000 300.0000 0000000   0.0000 210.0000 15.69614517    16
CTC1_L_00033027-01
1 10104U 23182KG  26075.70030093  .00000000  00000+0  00000-0 0  9993
2 10104  70.0000 312.0000 0000000   0.0000 312.0000 15.69614517    13
CTC1_L_00033027-02
1 10105U 23773IG  26075.70030093  .00000000  00000+0  00000-0 0  9990
2 10105  70.0000 312.0000 0000000   0.0000  42.0000 15.69614517    14
CTC1_L_00033027-03
1 10106U 25096XO  26075.70030093  .00000000  00000+0  00000-0 0  9991
2 10106  70.0000 312.0000 0000000   0.0000 132.0000 15.69614517    15
CTC1_L_00033027-04
1 10107U 25427KC  26075.70030093  .00000000  00000+0  00000-0 0  9990
2 10107  70.0000 312.0000 0000000   0.0000 222.0000 15.69614517    16
CTC1_L_00033028-01
1 10108U 26636DB  26075.70030093  .00000000  00000+0  00000-0 0  9994
2 10108  70.0000 324.0000 0000000   0.0000 324.0000 15.69614517    13
CTC1_L_00033028-02
1 10109U 24793J   26075.70030093  .00000000  00000+0  00000-0 0  9997
2 10109  70.0000 324.0000 0000000   0.0000  54.0000 15.69614517    14
CTC1_L_00033028-03
1 10110U 22854OR  26075.70030093  .00000000  00000+0  00000-0 0  9995
2 10110  70.0000 324.0000 0000000   0.0000 144.0000 15.69614517    16
CTC1_L_00033028-04
1 10111U 24021NZ  26075.70030093  .00000000  00000+0  00000-0 0  9994
2 10111  70.0000 324.0000 0000000   0.0000 234.0000 15.69614517    17
CTC1_L_00033029-01
1 10112U 23671ED  26075.70030093  .00000000  00000+0  00000-0 0  9995
2 10112  70.0000 336.0000 0000000   0.0000 336.0000 15.69614517    14
CTC1_L_00033029-02
1 10113U 24122JS  26075.70030093  .00000000  00000+0  00000-0 0  9998
2 10113  70.0000 336.0000 0000000   0.0000  66.0000 15.69614517    15
CTC1_L_00033029-03
1 10114U 24986WZ  26075.70030093  .00000000  00000+0  00000-0 0  9997
2 10114  70.0000 336.0000 0000000   0.0000 156.0000 15.69614517    16
CTC1_L_00033029-04
1 10115U 23606KF  26075.70030093  .00000000  00000+0  00000-0 0  9996
2 10115  70.0000 336.0000 0000000   0.0000 246.0000 15.69614517    17
CTC1_L_00033030-01
1 10116U 26925D   26075.70030093  .00000000  00000+0  00000-0 0  9994
2 10116  70.0000 348.0000 0000000   0.0000 348.0000 15.69614517    14
CTC1_L_00033030-02
1 10117U 22043D   26075.70030093  .00000000  00000+0  00000-0 0  9992
2 10117  70.0000 348.0000 0000000   0.0000  78.0000 15.69614517    15
CTC1_L_00033030-03
1 10118U 24265AE  26075.70030093  .00000000  00000+0  00000-0 0  9991
2 10118  70.0000 348.0000 0000000   0.0000 168.0000 15.69614517    16
CTC1_L_00033030-04
1 10119U 23677WN  26075.70030093  .00000000  00000+0  00000-0 0  9998
2 10119  70.0000 348.0000 0000000   0.0000 258.0000 15.69614517    17
